[{"OBJECT_NAME":"BRO-12","OBJECT_ID":"2024-043L","EPOCH":"2026-03-09T22:37:32.158848","MEAN_MOTION":14.96535251,"ECCENTRICITY":0.00077366,"INCLINATION":97.831,"RA_OF_ASC_NODE":199.8995,"ARG_OF_PERICENTER":330.9773,"MEAN_ANOMALY":29.1017,"EPHEMERIS_TYPE":0,"CLASSIFICATION_TYPE":"U","NORAD_CAT_ID":59108,"ELEMENT_SET_NO":999,"REV_AT_EPOCH":10979,"BSTAR":0.00015413906,"MEAN_MOTION_DOT":1.694e-5,"MEAN_MOTION_DDOT":0},{"OBJECT_NAME":"STARLINK-35763","OBJECT_ID":"2025-298Q","EPOCH":"2026-03-09T21:34:03.944928","MEAN_MOTION":14.98333596,"ECCENTRICITY":0.00024722,"INCLINATION":70.0022,"RA_OF_ASC_NODE":14.1324,"ARG_OF_PERICENTER":260.566,"MEAN_ANOMALY":99.522,"EPHEMERIS_TYPE":0,"CLASSIFICATION_TYPE":"U","NORAD_CAT_ID":67089,"ELEMENT_SET_NO":999,"REV_AT_EPOCH":1324,"BSTAR":0.00069308893,"MEAN_MOTION_DOT":8.187e-5,"MEAN_MOTION_DDOT":0}]
